[{"OBJECT_NAME":"COSMOS 2548","OBJECT_ID":"2020-091D","EPOCH":"2026-03-09T22:02:13.318944","MEAN_MOTION":12.42927201,"ECCENTRICITY":0.00161177,"INCLINATION":82.506,"RA_OF_ASC_NODE":3.3888,"ARG_OF_PERICENTER":51.7936,"MEAN_ANOMALY":308.4592,"EPHEMERIS_TYPE":0,"CLASSIFICATION_TYPE":"U","NORAD_CAT_ID":47230,"ELEMENT_SET_NO":999,"REV_AT_EPOCH":23872,"BSTAR":0.00020771865,"MEAN_MOTION_DOT":3.9e-7,"MEAN_MOTION_DDOT":0},{"OBJECT_NAME":"DELTA 1 DEB","OBJECT_ID":"1976-077AE","EPOCH":"2026-03-09T17:17:49.210080","MEAN_MOTION":12.46593662,"ECCENTRICITY":0.00152454,"INCLINATION":101.9097,"RA_OF_ASC_NODE":137.8987,"ARG_OF_PERICENTER":344.2408,"MEAN_ANOMALY":140.1099,"EPHEMERIS_TYPE":0,"CLASSIFICATION_TYPE":"U","NORAD_CAT_ID":10709,"ELEMENT_SET_NO":999,"REV_AT_EPOCH":25363,"BSTAR":0.0006701577,"MEAN_MOTION_DOT":5.3e-7,"MEAN_MOTION_DDOT":0}]
